[{"OBJECT_NAME":"STARLINK-30494","OBJECT_ID":"2023-151G","EPOCH":"2026-03-09T08:39:06.366240","MEAN_MOTION":15.28417441,"ECCENTRICITY":0.00011553,"INCLINATION":43.0027,"RA_OF_ASC_NODE":192.4566,"ARG_OF_PERICENTER":241.5536,"MEAN_ANOMALY":118.52,"EPHEMERIS_TYPE":0,"CLASSIFICATION_TYPE":"U","NORAD_CAT_ID":57970,"ELEMENT_SET_NO":999,"REV_AT_EPOCH":13740,"BSTAR":-3.569111e-5,"MEAN_MOTION_DOT":-1.272e-5,"MEAN_MOTION_DDOT":0},{"OBJECT_NAME":"STARLINK-31353","OBJECT_ID":"2024-031R","EPOCH":"2026-03-09T21:34:31.440864","MEAN_MOTION":15.30176283,"ECCENTRICITY":0.00011312,"INCLINATION":53.1606,"RA_OF_ASC_NODE":295.8328,"ARG_OF_PERICENTER":122.6998,"MEAN_ANOMALY":237.4112,"EPHEMERIS_TYPE":0,"CLASSIFICATION_TYPE":"U","NORAD_CAT_ID":58980,"ELEMENT_SET_NO":999,"REV_AT_EPOCH":11654,"BSTAR":0.00016035444,"MEAN_MOTION_DOT":4.39e-5,"MEAN_MOTION_DDOT":0}]
